NORAD_CAT_ID,OBJECT_NAME,OBJECT_TYPE,EPOCH,MEAN_MOTION,ECCENTRICITY,INCLINATION,RA_OF_ASC_NODE,ARG_OF_PERICENTER,MEAN_ANOMALY,BSTAR,MEAN_MOTION_DOT,MEAN_MOTION_DDOT,TLE_LINE0,TLE_LINE1,TLE_LINE2,SEMIMAJOR_AXIS,PERIOD,APOGEE,PERIGEE,DECAYED
52624.0,STARLINK-4009,PAYLOAD,2024-01-30 11:49:28,15.08838022,0.0001978,53.2167,122.1665,57.784,302.3344,3.7477e-05,3.08e-06,0.0,0 STARLINK-4009,1 52624U 22052AC  24030.49269329  .00000308  00000-0  37477-4 0  9996,2 52624  53.2167 122.1665 0001978  57.7840 302.3344 15.08838022 95240,6917.886,95.438,541.12,538.383,0.0
52624.0,STARLINK-4009,PAYLOAD,2024-01-30 13:24:51,15.08838618,0.0001796,53.217,121.869,72.9628,287.1561,3.9499e-05,3.41e-06,0.0,0 STARLINK-4009,1 52624U 22052AC  24030.55893207  .00000341  00000-0  39499-4 0  9994,2 52624  53.2170 121.8690 0001796  72.9628 287.1561 15.08838618 94879,6917.885,95.438,540.992,538.507,0.0
52624.0,STARLINK-4009,PAYLOAD,2024-01-30 15:00:14,15.08842239,0.0001711,53.2171,121.5716,91.5352,268.5836,9.3425e-05,1.199e-05,0.0,0 STARLINK-4009,1 52624U 22052AC  24030.62516947  .00001199  00000-0  93425-4 0  9996,2 52624  53.2171 121.5716 0001711  91.5352 268.5836 15.08842239 94887,6917.874,95.437,540.922,538.555,0.0
52624.0,STARLINK-4009,PAYLOAD,2024-01-31 11:40:15,15.08841968,0.0001789,53.2168,117.7041,93.0194,267.1003,0.00010888,1.445e-05,0.0,0 STARLINK-4009,1 52624U 22052AC  24031.48629116  .00001445  00000-0  10888-3 0  9999,2 52624  53.2168 117.7041 0001789  93.0194 267.1003 15.08841968 95012,6917.874,95.437,540.977,538.502,0.0
52624.0,STARLINK-4009,PAYLOAD,2024-01-31 14:51:01,15.08846153,0.0001962,53.2176,117.1078,91.7171,268.4046,0.00018618,2.677e-05,0.0,0 STARLINK-4009,1 52624U 22052AC  24031.61877003  .00002677  00000-0  18618-3 0  9991,2 52624  53.2176 117.1078 0001962  91.7171 268.4046 15.08846153 95032,6917.862,95.437,541.084,538.369,0.0
52624.0,STARLINK-4009,PAYLOAD,2024-02-01 11:31:02,15.08838471,0.0001971,53.2178,113.2339,98.502,261.6196,7.0522e-05,8.34e-06,0.0,0 STARLINK-4009,1 52624U 22052AC  24032.47989486  .00000834  00000-0  70522-4 0  9991,2 52624  53.2178 113.2339 0001971  98.5020 261.6196 15.08838471 95540,6917.885,95.438,541.114,538.387,0.0
52624.0,STARLINK-4009,PAYLOAD,2024-02-02 11:21:49,15.0885116,0.0001959,53.2185,108.7691,110.9419,249.1783,0.0001319,1.812e-05,0.0,0 STARLINK-4009,1 52624U 22052AC  24033.47348770  .00001812  00000-0  13190-3 0  9991,2 52624  53.2185 108.7691 0001959 110.9419 249.1783 15.08851160 95694,6917.846,95.437,541.066,538.356,0.0
52624.0,STARLINK-4009,PAYLOAD,2024-02-02 14:32:35,15.08843327,0.0002254,53.2184,108.1799,121.0885,239.0328,0.00043292,6.609e-05,0.0,0 STARLINK-4009,1 52624U 22052AC  24033.60597197  .00006609  00000-0  43292-3 0  9990,2 52624  53.2184 108.1799 0002254 121.0885 239.0328 15.08843327 95335,6917.87,95.437,541.295,538.176,0.0
52624.0,STARLINK-4009,PAYLOAD,2024-02-03 11:12:36,15.08844696,0.0001782,53.2167,104.3222,91.362,268.7577,0.00012111,1.64e-05,0.0,0 STARLINK-4009,1 52624U 22052AC  24034.46709329  .00001640  00000-0  12111-3 0  9993,2 52624  53.2167 104.3222 0001782  91.3620 268.7577 15.08844696 95847,6917.866,95.437,540.964,538.498,0.0
52624.0,STARLINK-4009,PAYLOAD,2024-02-03 14:23:22,15.08845586,0.0001768,53.2166,103.7251,112.1764,247.9416,0.00014855,2.077e-05,0.0,0 STARLINK-4009,1 52624U 22052AC  24034.59957098  .00002077  00000-0  14855-3 0  9997,2 52624  53.2166 103.7251 0001768 112.1764 247.9416 15.08845586 95486,6917.863,95.437,540.951,538.505,0.0
52624.0,STARLINK-4009,PAYLOAD,2024-02-04 11:03:23,15.08847225,0.000174,53.2172,99.8583,91.7044,268.4147,8.13e-05,1.006e-05,0.0,0 STARLINK-4009,1 52624U 22052AC  24035.46069068  .00001006  00000-0  81300-4 0  9996,2 52624  53.2172  99.8583 0001740  91.7044 268.4147 15.08847225 95615,6917.858,95.437,540.927,538.52,0.0
52624.0,STARLINK-4009,PAYLOAD,2024-02-05 04:32:38,15.08843174,0.0001993,53.2172,96.5935,113.0591,247.0611,8.8969e-05,1.128e-05,0.0,0 STARLINK-4009,1 52624U 22052AC  24036.18933330  .00001128  00000-0  88969-4 0  9991,2 52624  53.2172  96.5935 0001993 113.0591 247.0611 15.08843174 96108,6917.871,95.437,541.114,538.357,0.0
52624.0,STARLINK-4009,PAYLOAD,2024-02-05 10:54:10,15.08852512,0.0001615,53.2166,95.4044,98.1864,261.9311,0.00018577,2.671e-05,0.0,0 STARLINK-4009,1 52624U 22052AC  24036.45428813  .00002671  00000-0  18577-3 0  9997,2 52624  53.2166  95.4044 0001615  98.1864 261.9311 15.08852512 96149,6917.842,95.437,540.824,538.59,0.0
52624.0,STARLINK-4009,PAYLOAD,2024-02-06 04:23:25,15.08838654,0.000168,53.2171,92.1311,95.6974,264.421,3.5197e-05,2.72e-06,0.0,0 STARLINK-4009,1 52624U 22052AC  24037.18293554  .00000272  00000-0  35197-4 0  9993,2 52624  53.2171  92.1311 0001680  95.6974 264.4210 15.08838654 96251,6917.885,95.438,540.912,538.587,0.0
52624.0,STARLINK-4009,PAYLOAD,2024-02-06 09:09:35,15.08838964,0.0001584,53.2163,91.2385,88.8018,271.3155,3.7089e-05,3.02e-06,0.0,0 STARLINK-4009,1 52624U 22052AC  24037.38165661  .00000302  00000-0  37089-4 0  9998,2 52624  53.2163  91.2385 0001584  88.8018 271.3155 15.08838964 95909,6917.884,95.438,540.844,538.653,0.0
52624.0,STARLINK-4009,PAYLOAD,2024-02-07 12:11:08,15.08851373,0.0001672,53.2165,86.184,91.6786,268.4397,0.00030517,4.574e-05,0.0,0 STARLINK-4009,1 52624U 22052AC  24038.50773260  .00004574  00000-0  30517-3 0  9996,2 52624  53.2165  86.1840 0001672  91.6786 268.4397 15.08851373 96457,6917.846,95.437,540.867,538.554,0.0
52624.0,STARLINK-4009,PAYLOAD,2024-02-07 20:08:04,15.08838718,0.0001843,53.2163,84.6967,95.8776,264.2426,6.9297e-05,8.15e-06,0.0,0 STARLINK-4009,1 52624U 22052AC  24038.83893708  .00000815  00000-0  69297-4 0  9994,2 52624  53.2163  84.6967 0001843  95.8776 264.2426 15.08838718 96504,6917.884,95.438,541.024,538.474,0.0
52624.0,STARLINK-4009,PAYLOAD,2024-02-08 12:01:55,15.08845303,0.0001897,53.2167,81.7222,92.6966,267.4243,0.00022396,3.279e-05,0.0,0 STARLINK-4009,1 52624U 22052AC  24039.50133728  .00003279  00000-0  22396-3 0  9993,2 52624  53.2167  81.7222 0001897  92.6966 267.4243 15.08845303 96224,6917.864,95.437,541.041,538.417,0.0
52624.0,STARLINK-4009,PAYLOAD,2024-02-09 02:20:24,15.08836286,0.0001639,53.2164,79.0468,97.636,262.4819,-4.3547e-05,-9.81e-06,0.0,0 STARLINK-4009,1 52624U 22052AC  24040.09750225 -.00000981  00000-0 -43547-4 0  9997,2 52624  53.2164  79.0468 0001639  97.6360 262.4819 15.08836286 96695,6917.892,95.438,540.891,538.623,0.0
52624.0,STARLINK-4009,PAYLOAD,2024-02-09 08:41:56,15.08839886,0.000201,53.2166,77.8573,113.7588,246.3615,5.8777e-05,6.47e-06,0.0,0 STARLINK-4009,1 52624U 22052AC  24040.36246087  .00000647  00000-0  58777-4 0  9991,2 52624  53.2166  77.8573 0002010 113.7588 246.3615 15.08839886 96353,6917.881,95.438,541.136,538.355,0.0
52624.0,STARLINK-4009,PAYLOAD,2024-02-10 08:32:43,15.08846426,0.0002202,53.2172,73.3969,121.5822,238.5386,0.00028325,4.223e-05,0.0,0 STARLINK-4009,1 52624U 22052AC  24041.35606219  .00004223  00000-0  28325-3 0  9997,2 52624  53.2172  73.3969 0002202 121.5822 238.5386 15.08846426 96885,6917.861,95.437,541.249,538.202,0.0
52624.0,STARLINK-4009,PAYLOAD,2024-02-11 02:01:58,15.08846313,0.0001941,53.2168,70.127,94.2737,265.8477,0.00027786,4.138e-05,0.0,0 STARLINK-4009,1 52624U 22052AC  24042.08470513  .00004138  00000-0  27786-3 0  9999,2 52624  53.2168  70.1270 0001941  94.2737 265.8477 15.08846313 96991,6917.861,95.437,541.069,538.383,0.0
52624.0,STARLINK-4009,PAYLOAD,2024-02-11 08:23:30,15.08846203,0.0001987,53.2177,68.9375,103.3859,256.7355,0.00019764,2.859e-05,0.0,0 STARLINK-4009,1 52624U 22052AC  24042.34966259  .00002859  00000-0  19764-3 0  9990,2 52624  53.2177  68.9375 0001987 103.3859 256.7355 15.08846203 96654,6917.861,95.437,541.101,538.352,0.0
52624.0,STARLINK-4009,PAYLOAD,2024-02-12 11:25:03,15.08849921,0.000195,53.2166,63.8789,106.2596,253.8611,0.00016807,2.388e-05,0.0,0 STARLINK-4009,1 52624U 22052AC  24043.47573831  .00002388  00000-0  16807-3 0  9997,2 52624  53.2166  63.8789 0001950 106.2596 253.8611 15.08849921 97200,6917.85,95.437,541.064,538.366,0.0
52624.0,STARLINK-4009,PAYLOAD,2024-02-13 01:43:33,15.08825225,0.000146,53.218,61.2054,97.0118,263.104,-0.00015848,-2.808e-05,0.0,0 STARLINK-4009,1 52624U 22052AC  24044.07191170 -.00002808  00000-0 -15848-3 0  9999,2 52624  53.2180  61.2054 0001460  97.0118 263.1040 15.08825225 97296,6917.926,95.438,540.801,538.781,0.0
52624.0,STARLINK-4009,PAYLOAD,2024-02-13 08:05:05,15.08833669,0.0002081,53.2195,60.0198,110.8248,249.2967,-3.397e-05,-8.29e-06,0.0,0 STARLINK-4009,1 52624U 22052AC  24044.33686959 -.00000829  00000-0 -33970-4 0  9990,2 52624  53.2195  60.0198 0002081 110.8248 249.2967 15.08833669 97335,6917.9,95.438,541.204,538.325,0.0
52624.0,STARLINK-4009,PAYLOAD,2024-02-14 06:20:29,15.08843356,0.0001779,53.2186,55.8542,101.1315,258.9877,0.00014097,1.956e-05,0.0,0 STARLINK-4009,1 52624U 22052AC  24045.26422812  .00001956  00000-0  14097-3 0  9997,2 52624  53.2186  55.8542 0001779 101.1315 258.9877 15.08843356 97477,6917.87,95.437,540.966,538.504,0.0
52624.0,STARLINK-4009,PAYLOAD,2024-02-14 17:28:11,15.08842684,0.0001792,53.2186,53.7724,109.5846,250.5339,0.00013954,1.934e-05,0.0,0 STARLINK-4009,1 52624U 22052AC  24045.72790945  .00001934  00000-0  13954-3 0  9990,2 52624  53.2186  53.7724 0001792 109.5846 250.5339 15.08842684 97162,6917.872,95.437,540.977,538.498,0.0
52624.0,STARLINK-4009,PAYLOAD,2024-02-15 09:22:03,15.08837964,0.0001839,53.2186,50.7962,92.705,267.4153,0.00017241,2.457e-05,0.0,0 STARLINK-4009,1 52624U 22052AC  24046.39031505  .00002457  00000-0  17241-3 0  9998,2 52624  53.2186  50.7962 0001839  92.7050 267.4153 15.08837964 97644,6917.887,95.438,541.024,538.479,0.0
52624.0,STARLINK-4009,PAYLOAD,2024-02-15 17:18:58,15.08841386,0.0001807,53.2181,49.3083,89.1445,270.9754,0.00012481,1.699e-05,0.0,0 STARLINK-4009,1 52624U 22052AC  24046.72151354  .00001699  00000-0  12481-3 0  9998,2 52624  53.2181  49.3083 0001807  89.1445 270.9754 15.08841386 97313,6917.876,95.437,540.991,538.491,0.0
